[{"OBJECT_NAME":"GRUS-1E","OBJECT_ID":"2021-022D","EPOCH":"2026-03-09T21:59:56.793984","MEAN_MOTION":14.99580708,"ECCENTRICITY":0.00128752,"INCLINATION":97.5572,"RA_OF_ASC_NODE":316.384,"ARG_OF_PERICENTER":314.1526,"MEAN_ANOMALY":45.8638,"EPHEMERIS_TYPE":0,"CLASSIFICATION_TYPE":"U","NORAD_CAT_ID":47935,"ELEMENT_SET_NO":999,"REV_AT_EPOCH":27107,"BSTAR":0.00017718433,"MEAN_MOTION_DOT":2.125e-5,"MEAN_MOTION_DDOT":0},{"OBJECT_NAME":"HAWK-10B","OBJECT_ID":"2024-149CF","EPOCH":"2026-03-09T22:24:07.674624","MEAN_MOTION":14.96175068,"ECCENTRICITY":0.00063882,"INCLINATION":97.6865,"RA_OF_ASC_NODE":146.0046,"ARG_OF_PERICENTER":71.247,"MEAN_ANOMALY":288.9444,"EPHEMERIS_TYPE":0,"CLASSIFICATION_TYPE":"U","NORAD_CAT_ID":60545,"ELEMENT_SET_NO":999,"REV_AT_EPOCH":8514,"BSTAR":0.00020768682,"MEAN_MOTION_DOT":2.283e-5,"MEAN_MOTION_DDOT":0}]
